HIERARCHY
ROOT Hips
{
  OFFSET 0.00 95.00 0.00
  CHANNELS 6 Xposition Yposition Zposition Zrotation Xrotation Yrotation
  JOINT LeftUpLeg
  {
    OFFSET 9.00 -4.00 0.00
    CHANNELS 3 Zrotation Xrotation Yrotation
    JOINT LeftLeg
    {
      OFFSET 0.00 -44.00 0.00
      CHANNELS 3 Zrotation Xrotation Yrotation
      JOINT LeftFoot
      {
        OFFSET 0.00 -42.00 0.00
        CHANNELS 3 Zrotation Xrotation Yrotation
        JOINT LeftToeBase
        {
          OFFSET 0.00 -6.00 13.00
          CHANNELS 3 Zrotation Xrotation Yrotation
          End Site
          {
            OFFSET 0.00 0.00 5.00
          }
        }
      }
    }
  }
  JOINT RightUpLeg
  {
    OFFSET -9.00 -4.00 0.00
    CHANNELS 3 Zrotation Xrotation Yrotation
    JOINT RightLeg
    {
      OFFSET 0.00 -44.00 0.00
      CHANNELS 3 Zrotation Xrotation Yrotation
      JOINT RightFoot
      {
        OFFSET 0.00 -42.00 0.00
        CHANNELS 3 Zrotation Xrotation Yrotation
        JOINT RightToeBase
        {
          OFFSET 0.00 -6.00 13.00
          CHANNELS 3 Zrotation Xrotation Yrotation
          End Site
          {
            OFFSET 0.00 0.00 5.00
          }
        }
      }
    }
  }
  JOINT Spine
  {
    OFFSET 0.00 10.00 0.00
    CHANNELS 3 Zrotation Xrotation Yrotation
    JOINT Spine1
    {
      OFFSET 0.00 22.00 0.00
      CHANNELS 3 Zrotation Xrotation Yrotation
      JOINT Neck
      {
        OFFSET 0.00 22.00 0.00
        CHANNELS 3 Zrotation Xrotation Yrotation
        JOINT Head
        {
          OFFSET 0.00 10.00 0.00
          CHANNELS 3 Zrotation Xrotation Yrotation
          End Site
          {
            OFFSET 0.00 18.00 0.00
          }
        }
      }
      JOINT LeftShoulder
      {
        OFFSET 4.00 18.00 0.00
        CHANNELS 3 Zrotation Xrotation Yrotation
        JOINT LeftArm
        {
          OFFSET 14.00 0.00 0.00
          CHANNELS 3 Zrotation Xrotation Yrotation
          JOINT LeftForeArm
          {
            OFFSET 29.00 0.00 0.00
            CHANNELS 3 Zrotation Xrotation Yrotation
            JOINT LeftHand
            {
              OFFSET 26.00 0.00 0.00
              CHANNELS 3 Zrotation Xrotation Yrotation
              End Site
              {
                OFFSET 10.00 0.00 0.00
              }
            }
          }
        }
      }
      JOINT RightShoulder
      {
        OFFSET -4.00 18.00 0.00
        CHANNELS 3 Zrotation Xrotation Yrotation
        JOINT RightArm
        {
          OFFSET -14.00 0.00 0.00
          CHANNELS 3 Zrotation Xrotation Yrotation
          JOINT RightForeArm
          {
            OFFSET -29.00 0.00 0.00
            CHANNELS 3 Zrotation Xrotation Yrotation
            JOINT RightHand
            {
              OFFSET -26.00 0.00 0.00
              CHANNELS 3 Zrotation Xrotation Yrotation
              End Site
              {
                OFFSET -10.00 0.00 0.00
              }
            }
          }
        }
      }
    }
  }
}
MOTION
Frames: 108
Frame Time: 0.033333
0.0000 86.0000 0.0000 0.0000 0.0000 0.0000 0.0000 -22.0000 0.0000 0.0000 40.0000 0.0000 0.0000 -18.0000 0.0000 0.0000 0.0000 0.0000 -0.0000 -22.0000 0.0000 0.0000 40.0000 0.0000 0.0000 -18.0000 0.0000 0.0000 0.0000 0.0000 0.0000 6.0000 0.0000 0.0000 0.0000 0.0000 0.0000 0.0000 0.0000 0.0000 -8.0000 0.0000 0.0000 0.0000 0.0000 -80.0000 0.0000 0.0000 0.0000 0.0000 0.0000 0.0000 0.0000 0.0000 0.0000 0.0000 0.0000 80.0000 0.0000 0.0000 -0.0000 0.0000 0.0000 0.0000 0.0000 0.0000
0.0000 89.2993 0.0000 0.0000 0.0000 0.0000 0.1063 -18.1797 0.0000 0.0000 33.0541 0.0000 0.0000 -14.8743 0.0000 0.0000 0.0000 0.0000 -0.1063 -18.1797 0.0000 0.0000 33.0541 0.0000 0.0000 -14.8743 0.0000 0.0000 0.0000 0.0000 0.0000 4.9581 0.0000 0.0000 0.0000 0.0000 0.0000 0.0000 0.0000 0.0000 -6.6108 0.0000 0.0000 0.0000 0.0000 -78.7466 0.0000 0.0000 0.0760 0.0000 0.0000 0.0000 0.0000 0.0000 0.0000 0.0000 0.0000 78.7466 0.0000 0.0000 -0.0760 0.0000 0.0000 0.0000 0.0000 0.0000
0.0000 92.4984 0.0000 0.0000 0.0000 0.0000 0.4222 -14.4756 0.0000 0.0000 26.3192 0.0000 0.0000 -11.8436 0.0000 0.0000 0.0000 0.0000 -0.4222 -14.4756 0.0000 0.0000 26.3192 0.0000 0.0000 -11.8436 0.0000 0.0000 0.0000 0.0000 0.0000 3.9479 0.0000 0.0000 0.0000 0.0000 0.0000 0.0000 0.0000 0.0000 -5.2638 0.0000 0.0000 0.0000 0.0000 -75.0246 0.0000 0.0000 0.3015 0.0000 0.0000 0.0000 0.0000 0.0000 0.0000 0.0000 0.0000 75.0246 0.0000 0.0000 -0.3015 0.0000 0.0000 0.0000 0.0000 0.0000
0.0000 95.5000 0.0000 0.0000 0.0000 0.0000 0.9378 -11.0000 0.0000 0.0000 20.0000 0.0000 0.0000 -9.0000 0.0000 0.0000 0.0000 0.0000 -0.9378 -11.0000 0.0000 0.0000 20.0000 0.0000 0.0000 -9.0000 0.0000 0.0000 0.0000 0.0000 0.0000 3.0000 0.0000 0.0000 0.0000 0.0000 0.0000 0.0000 0.0000 0.0000 -4.0000 0.0000 0.0000 0.0000 0.0000 -68.9471 0.0000 0.0000 0.6699 0.0000 0.0000 0.0000 0.0000 0.0000 0.0000 0.0000 0.0000 68.9471 0.0000 0.0000 -0.6699 0.0000 0.0000 0.0000 0.0000 0.0000
0.0000 98.2130 0.0000 0.0000 0.0000 0.0000 1.6377 -7.8587 0.0000 0.0000 14.2885 0.0000 0.0000 -6.4298 0.0000 0.0000 0.0000 0.0000 -1.6377 -7.8587 0.0000 0.0000 14.2885 0.0000 0.0000 -6.4298 0.0000 0.0000 0.0000 0.0000 0.0000 2.1433 0.0000 0.0000 0.0000 0.0000 0.0000 0.0000 0.0000 0.0000 -2.8577 0.0000 0.0000 0.0000 0.0000 -60.6987 0.0000 0.0000 1.1698 0.0000 0.0000 0.0000 0.0000 0.0000 0.0000 0.0000 0.0000 60.6987 0.0000 0.0000 -1.1698 0.0000 0.0000 0.0000 0.0000 0.0000
0.0000 100.5548 0.0000 0.0000 0.0000 0.0000 2.5005 -5.1470 0.0000 0.0000 9.3582 0.0000 0.0000 -4.2112 0.0000 0.0000 0.0000 0.0000 -2.5005 -5.1470 0.0000 0.0000 9.3582 0.0000 0.0000 -4.2112 0.0000 0.0000 0.0000 0.0000 0.0000 1.4037 0.0000 0.0000 0.0000 0.0000 0.0000 0.0000 0.0000 0.0000 -1.8716 0.0000 0.0000 0.0000 0.0000 -50.5300 0.0000 0.0000 1.7861 0.0000 0.0000 0.0000 0.0000 0.0000 0.0000 0.0000 0.0000 50.5300 0.0000 0.0000 -1.7861 0.0000 0.0000 0.0000 0.0000 0.0000
0.0000 102.4545 0.0000 0.0000 0.0000 0.0000 3.5000 -2.9474 0.0000 0.0000 5.3590 0.0000 0.0000 -2.4115 0.0000 0.0000 0.0000 0.0000 -3.5000 -2.9474 0.0000 0.0000 5.3590 0.0000 0.0000 -2.4115 0.0000 0.0000 0.0000 0.0000 0.0000 0.8038 0.0000 0.0000 0.0000 0.0000 0.0000 0.0000 0.0000 0.0000 -1.0718 0.0000 0.0000 0.0000 0.0000 -38.7500 0.0000 0.0000 2.5000 0.0000 0.0000 0.0000 0.0000 0.0000 0.0000 0.0000 0.0000 38.7500 0.0000 0.0000 -2.5000 0.0000 0.0000 0.0000 0.0000 0.0000
0.0000 103.8542 0.0000 0.0000 0.0000 0.0000 4.6059 -1.3268 0.0000 0.0000 2.4123 0.0000 0.0000 -1.0855 0.0000 0.0000 0.0000 0.0000 -4.6059 -1.3268 0.0000 0.0000 2.4123 0.0000 0.0000 -1.0855 0.0000 0.0000 0.0000 0.0000 0.0000 0.3618 0.0000 0.0000 0.0000 0.0000 0.0000 0.0000 0.0000 0.0000 -0.4825 0.0000 0.0000 0.0000 0.0000 -25.7167 0.0000 0.0000 3.2899 0.0000 0.0000 0.0000 0.0000 0.0000 0.0000 0.0000 0.0000 25.7167 0.0000 0.0000 -3.2899 0.0000 0.0000 0.0000 0.0000 0.0000
0.0000 104.7113 0.0000 0.0000 0.0000 0.0000 5.7845 -0.3342 0.0000 0.0000 0.6077 0.0000 0.0000 -0.2735 0.0000 0.0000 0.0000 0.0000 -5.7845 -0.3342 0.0000 0.0000 0.6077 0.0000 0.0000 -0.2735 0.0000 0.0000 0.0000 0.0000 0.0000 0.0912 0.0000 0.0000 0.0000 0.0000 0.0000 0.0000 0.0000 0.0000 -0.1215 0.0000 0.0000 0.0000 0.0000 -11.8260 0.0000 0.0000 4.1318 0.0000 0.0000 0.0000 0.0000 0.0000 0.0000 0.0000 0.0000 11.8260 0.0000 0.0000 -4.1318 0.0000 0.0000 0.0000 0.0000 0.0000
0.0000 105.0000 0.0000 0.0000 0.0000 0.0000 7.0000 -0.0000 0.0000 0.0000 0.0000 0.0000 0.0000 -0.0000 0.0000 0.0000 0.0000 0.0000 -7.0000 -0.0000 0.0000 0.0000 0.0000 0.0000 0.0000 -0.0000 0.0000 0.0000 0.0000 0.0000 0.0000 0.0000 0.0000 0.0000 0.0000 0.0000 0.0000 0.0000 0.0000 0.0000 -0.0000 0.0000 0.0000 0.0000 0.0000 2.5000 0.0000 0.0000 5.0000 0.0000 0.0000 0.0000 0.0000 0.0000 0.0000 0.0000 0.0000 -2.5000 0.0000 0.0000 -5.0000 0.0000 0.0000 0.0000 0.0000 0.0000
0.0000 104.7113 0.0000 0.0000 0.0000 0.0000 8.2155 -0.3342 0.0000 0.0000 0.6077 0.0000 0.0000 -0.2735 0.0000 0.0000 0.0000 0.0000 -8.2155 -0.3342 0.0000 0.0000 0.6077 0.0000 0.0000 -0.2735 0.0000 0.0000 0.0000 0.0000 0.0000 0.0912 0.0000 0.0000 0.0000 0.0000 0.0000 0.0000 0.0000 0.0000 -0.1215 0.0000 0.0000 0.0000 0.0000 16.8260 0.0000 0.0000 5.8682 0.0000 0.0000 0.0000 0.0000 0.0000 0.0000 0.0000 0.0000 -16.8260 0.0000 0.0000 -5.8682 0.0000 0.0000 0.0000 0.0000 0.0000
0.0000 103.8542 0.0000 0.0000 0.0000 0.0000 9.3941 -1.3268 0.0000 0.0000 2.4123 0.0000 0.0000 -1.0855 0.0000 0.0000 0.0000 0.0000 -9.3941 -1.3268 0.0000 0.0000 2.4123 0.0000 0.0000 -1.0855 0.0000 0.0000 0.0000 0.0000 0.0000 0.3618 0.0000 0.0000 0.0000 0.0000 0.0000 0.0000 0.0000 0.0000 -0.4825 0.0000 0.0000 0.0000 0.0000 30.7167 0.0000 0.0000 6.7101 0.0000 0.0000 0.0000 0.0000 0.0000 0.0000 0.0000 0.0000 -30.7167 0.0000 0.0000 -6.7101 0.0000 0.0000 0.0000 0.0000 0.0000
0.0000 102.4545 0.0000 0.0000 0.0000 0.0000 10.5000 -2.9474 0.0000 0.0000 5.3590 0.0000 0.0000 -2.4115 0.0000 0.0000 0.0000 0.0000 -10.5000 -2.9474 0.0000 0.0000 5.3590 0.0000 0.0000 -2.4115 0.0000 0.0000 0.0000 0.0000 0.0000 0.8038 0.0000 0.0000 0.0000 0.0000 0.0000 0.0000 0.0000 0.0000 -1.0718 0.0000 0.0000 0.0000 0.0000 43.7500 0.0000 0.0000 7.5000 0.0000 0.0000 0.0000 0.0000 0.0000 0.0000 0.0000 0.0000 -43.7500 0.0000 0.0000 -7.5000 0.0000 0.0000 0.0000 0.0000 0.0000
0.0000 100.5548 0.0000 0.0000 0.0000 0.0000 11.4995 -5.1470 0.0000 0.0000 9.3582 0.0000 0.0000 -4.2112 0.0000 0.0000 0.0000 0.0000 -11.4995 -5.1470 0.0000 0.0000 9.3582 0.0000 0.0000 -4.2112 0.0000 0.0000 0.0000 0.0000 0.0000 1.4037 0.0000 0.0000 0.0000 0.0000 0.0000 0.0000 0.0000 0.0000 -1.8716 0.0000 0.0000 0.0000 0.0000 55.5300 0.0000 0.0000 8.2139 0.0000 0.0000 0.0000 0.0000 0.0000 0.0000 0.0000 0.0000 -55.5300 0.0000 0.0000 -8.2139 0.0000 0.0000 0.0000 0.0000 0.0000
0.0000 98.2130 0.0000 0.0000 0.0000 0.0000 12.3623 -7.8587 0.0000 0.0000 14.2885 0.0000 0.0000 -6.4298 0.0000 0.0000 0.0000 0.0000 -12.3623 -7.8587 0.0000 0.0000 14.2885 0.0000 0.0000 -6.4298 0.0000 0.0000 0.0000 0.0000 0.0000 2.1433 0.0000 0.0000 0.0000 0.0000 0.0000 0.0000 0.0000 0.0000 -2.8577 0.0000 0.0000 0.0000 0.0000 65.6987 0.0000 0.0000 8.8302 0.0000 0.0000 0.0000 0.0000 0.0000 0.0000 0.0000 0.0000 -65.6987 0.0000 0.0000 -8.8302 0.0000 0.0000 0.0000 0.0000 0.0000
0.0000 95.5000 0.0000 0.0000 0.0000 0.0000 13.0622 -11.0000 0.0000 0.0000 20.0000 0.0000 0.0000 -9.0000 0.0000 0.0000 0.0000 0.0000 -13.0622 -11.0000 0.0000 0.0000 20.0000 0.0000 0.0000 -9.0000 0.0000 0.0000 0.0000 0.0000 0.0000 3.0000 0.0000 0.0000 0.0000 0.0000 0.0000 0.0000 0.0000 0.0000 -4.0000 0.0000 0.0000 0.0000 0.0000 73.9471 0.0000 0.0000 9.3301 0.0000 0.0000 0.0000 0.0000 0.0000 0.0000 0.0000 0.0000 -73.9471 0.0000 0.0000 -9.3301 0.0000 0.0000 0.0000 0.0000 0.0000
0.0000 92.4984 0.0000 0.0000 0.0000 0.0000 13.5778 -14.4756 0.0000 0.0000 26.3192 0.0000 0.0000 -11.8436 0.0000 0.0000 0.0000 0.0000 -13.5778 -14.4756 0.0000 0.0000 26.3192 0.0000 0.0000 -11.8436 0.0000 0.0000 0.0000 0.0000 0.0000 3.9479 0.0000 0.0000 0.0000 0.0000 0.0000 0.0000 0.0000 0.0000 -5.2638 0.0000 0.0000 0.0000 0.0000 80.0246 0.0000 0.0000 9.6985 0.0000 0.0000 0.0000 0.0000 0.0000 0.0000 0.0000 0.0000 -80.0246 0.0000 0.0000 -9.6985 0.0000 0.0000 0.0000 0.0000 0.0000
0.0000 89.2993 0.0000 0.0000 0.0000 0.0000 13.8937 -18.1797 0.0000 0.0000 33.0541 0.0000 0.0000 -14.8743 0.0000 0.0000 0.0000 0.0000 -13.8937 -18.1797 0.0000 0.0000 33.0541 0.0000 0.0000 -14.8743 0.0000 0.0000 0.0000 0.0000 0.0000 4.9581 0.0000 0.0000 0.0000 0.0000 0.0000 0.0000 0.0000 0.0000 -6.6108 0.0000 0.0000 0.0000 0.0000 83.7466 0.0000 0.0000 9.9240 0.0000 0.0000 0.0000 0.0000 0.0000 0.0000 0.0000 0.0000 -83.7466 0.0000 0.0000 -9.9240 0.0000 0.0000 0.0000 0.0000 0.0000
0.0000 86.0000 0.0000 0.0000 0.0000 0.0000 14.0000 -22.0000 0.0000 0.0000 40.0000 0.0000 0.0000 -18.0000 0.0000 0.0000 0.0000 0.0000 -14.0000 -22.0000 0.0000 0.0000 40.0000 0.0000 0.0000 -18.0000 0.0000 0.0000 0.0000 0.0000 0.0000 6.0000 0.0000 0.0000 0.0000 0.0000 0.0000 0.0000 0.0000 0.0000 -8.0000 0.0000 0.0000 0.0000 0.0000 85.0000 0.0000 0.0000 10.0000 0.0000 0.0000 0.0000 0.0000 0.0000 0.0000 0.0000 0.0000 -85.0000 0.0000 0.0000 -10.0000 0.0000 0.0000 0.0000 0.0000 0.0000
0.0000 89.2993 0.0000 0.0000 0.0000 0.0000 13.8937 -18.1797 0.0000 0.0000 33.0541 0.0000 0.0000 -14.8743 0.0000 0.0000 0.0000 0.0000 -13.8937 -18.1797 0.0000 0.0000 33.0541 0.0000 0.0000 -14.8743 0.0000 0.0000 0.0000 0.0000 0.0000 4.9581 0.0000 0.0000 0.0000 0.0000 0.0000 0.0000 0.0000 0.0000 -6.6108 0.0000 0.0000 0.0000 0.0000 83.7466 0.0000 0.0000 9.9240 0.0000 0.0000 0.0000 0.0000 0.0000 0.0000 0.0000 0.0000 -83.7466 0.0000 0.0000 -9.9240 0.0000 0.0000 0.0000 0.0000 0.0000
0.0000 92.4984 0.0000 0.0000 0.0000 0.0000 13.5778 -14.4756 0.0000 0.0000 26.3192 0.0000 0.0000 -11.8436 0.0000 0.0000 0.0000 0.0000 -13.5778 -14.4756 0.0000 0.0000 26.3192 0.0000 0.0000 -11.8436 0.0000 0.0000 0.0000 0.0000 0.0000 3.9479 0.0000 0.0000 0.0000 0.0000 0.0000 0.0000 0.0000 0.0000 -5.2638 0.0000 0.0000 0.0000 0.0000 80.0246 0.0000 0.0000 9.6985 0.0000 0.0000 0.0000 0.0000 0.0000 0.0000 0.0000 0.0000 -80.0246 0.0000 0.0000 -9.6985 0.0000 0.0000 0.0000 0.0000 0.0000
0.0000 95.5000 0.0000 0.0000 0.0000 0.0000 13.0622 -11.0000 0.0000 0.0000 20.0000 0.0000 0.0000 -9.0000 0.0000 0.0000 0.0000 0.0000 -13.0622 -11.0000 0.0000 0.0000 20.0000 0.0000 0.0000 -9.0000 0.0000 0.0000 0.0000 0.0000 0.0000 3.0000 0.0000 0.0000 0.0000 0.0000 0.0000 0.0000 0.0000 0.0000 -4.0000 0.0000 0.0000 0.0000 0.0000 73.9471 0.0000 0.0000 9.3301 0.0000 0.0000 0.0000 0.0000 0.0000 0.0000 0.0000 0.0000 -73.9471 0.0000 0.0000 -9.3301 0.0000 0.0000 0.0000 0.0000 0.0000
0.0000 98.2130 0.0000 0.0000 0.0000 0.0000 12.3623 -7.8587 0.0000 0.0000 14.2885 0.0000 0.0000 -6.4298 0.0000 0.0000 0.0000 0.0000 -12.3623 -7.8587 0.0000 0.0000 14.2885 0.0000 0.0000 -6.4298 0.0000 0.0000 0.0000 0.0000 0.0000 2.1433 0.0000 0.0000 0.0000 0.0000 0.0000 0.0000 0.0000 0.0000 -2.8577 0.0000 0.0000 0.0000 0.0000 65.6987 0.0000 0.0000 8.8302 0.0000 0.0000 0.0000 0.0000 0.0000 0.0000 0.0000 0.0000 -65.6987 0.0000 0.0000 -8.8302 0.0000 0.0000 0.0000 0.0000 0.0000
0.0000 100.5548 0.0000 0.0000 0.0000 0.0000 11.4995 -5.1470 0.0000 0.0000 9.3582 0.0000 0.0000 -4.2112 0.0000 0.0000 0.0000 0.0000 -11.4995 -5.1470 0.0000 0.0000 9.3582 0.0000 0.0000 -4.2112 0.0000 0.0000 0.0000 0.0000 0.0000 1.4037 0.0000 0.0000 0.0000 0.0000 0.0000 0.0000 0.0000 0.0000 -1.8716 0.0000 0.0000 0.0000 0.0000 55.5300 0.0000 0.0000 8.2139 0.0000 0.0000 0.0000 0.0000 0.0000 0.0000 0.0000 0.0000 -55.5300 0.0000 0.0000 -8.2139 0.0000 0.0000 0.0000 0.0000 0.0000
0.0000 102.4545 0.0000 0.0000 0.0000 0.0000 10.5000 -2.9474 0.0000 0.0000 5.3590 0.0000 0.0000 -2.4115 0.0000 0.0000 0.0000 0.0000 -10.5000 -2.9474 0.0000 0.0000 5.3590 0.0000 0.0000 -2.4115 0.0000 0.0000 0.0000 0.0000 0.0000 0.8038 0.0000 0.0000 0.0000 0.0000 0.0000 0.0000 0.0000 0.0000 -1.0718 0.0000 0.0000 0.0000 0.0000 43.7500 0.0000 0.0000 7.5000 0.0000 0.0000 0.0000 0.0000 0.0000 0.0000 0.0000 0.0000 -43.7500 0.0000 0.0000 -7.5000 0.0000 0.0000 0.0000 0.0000 0.0000
0.0000 103.8542 0.0000 0.0000 0.0000 0.0000 9.3941 -1.3268 0.0000 0.0000 2.4123 0.0000 0.0000 -1.0855 0.0000 0.0000 0.0000 0.0000 -9.3941 -1.3268 0.0000 0.0000 2.4123 0.0000 0.0000 -1.0855 0.0000 0.0000 0.0000 0.0000 0.0000 0.3618 0.0000 0.0000 0.0000 0.0000 0.0000 0.0000 0.0000 0.0000 -0.4825 0.0000 0.0000 0.0000 0.0000 30.7167 0.0000 0.0000 6.7101 0.0000 0.0000 0.0000 0.0000 0.0000 0.0000 0.0000 0.0000 -30.7167 0.0000 0.0000 -6.7101 0.0000 0.0000 0.0000 0.0000 0.0000
0.0000 104.7113 0.0000 0.0000 0.0000 0.0000 8.2155 -0.3342 0.0000 0.0000 0.6077 0.0000 0.0000 -0.2735 0.0000 0.0000 0.0000 0.0000 -8.2155 -0.3342 0.0000 0.0000 0.6077 0.0000 0.0000 -0.2735 0.0000 0.0000 0.0000 0.0000 0.0000 0.0912 0.0000 0.0000 0.0000 0.0000 0.0000 0.0000 0.0000 0.0000 -0.1215 0.0000 0.0000 0.0000 0.0000 16.8260 0.0000 0.0000 5.8682 0.0000 0.0000 0.0000 0.0000 0.0000 0.0000 0.0000 0.0000 -16.8260 0.0000 0.0000 -5.8682 0.0000 0.0000 0.0000 0.0000 0.0000
0.0000 105.0000 0.0000 0.0000 0.0000 0.0000 7.0000 -0.0000 0.0000 0.0000 0.0000 0.0000 0.0000 -0.0000 0.0000 0.0000 0.0000 0.0000 -7.0000 -0.0000 0.0000 0.0000 0.0000 0.0000 0.0000 -0.0000 0.0000 0.0000 0.0000 0.0000 0.0000 0.0000 0.0000 0.0000 0.0000 0.0000 0.0000 0.0000 0.0000 0.0000 -0.0000 0.0000 0.0000 0.0000 0.0000 2.5000 0.0000 0.0000 5.0000 0.0000 0.0000 0.0000 0.0000 0.0000 0.0000 0.0000 0.0000 -2.5000 0.0000 0.0000 -5.0000 0.0000 0.0000 0.0000 0.0000 0.0000
0.0000 104.7113 0.0000 0.0000 0.0000 0.0000 5.7845 -0.3342 0.0000 0.0000 0.6077 0.0000 0.0000 -0.2735 0.0000 0.0000 0.0000 0.0000 -5.7845 -0.3342 0.0000 0.0000 0.6077 0.0000 0.0000 -0.2735 0.0000 0.0000 0.0000 0.0000 0.0000 0.0912 0.0000 0.0000 0.0000 0.0000 0.0000 0.0000 0.0000 0.0000 -0.1215 0.0000 0.0000 0.0000 0.0000 -11.8260 0.0000 0.0000 4.1318 0.0000 0.0000 0.0000 0.0000 0.0000 0.0000 0.0000 0.0000 11.8260 0.0000 0.0000 -4.1318 0.0000 0.0000 0.0000 0.0000 0.0000
0.0000 103.8542 0.0000 0.0000 0.0000 0.0000 4.6059 -1.3268 0.0000 0.0000 2.4123 0.0000 0.0000 -1.0855 0.0000 0.0000 0.0000 0.0000 -4.6059 -1.3268 0.0000 0.0000 2.4123 0.0000 0.0000 -1.0855 0.0000 0.0000 0.0000 0.0000 0.0000 0.3618 0.0000 0.0000 0.0000 0.0000 0.0000 0.0000 0.0000 0.0000 -0.4825 0.0000 0.0000 0.0000 0.0000 -25.7167 0.0000 0.0000 3.2899 0.0000 0.0000 0.0000 0.0000 0.0000 0.0000 0.0000 0.0000 25.7167 0.0000 0.0000 -3.2899 0.0000 0.0000 0.0000 0.0000 0.0000
0.0000 102.4545 0.0000 0.0000 0.0000 0.0000 3.5000 -2.9474 0.0000 0.0000 5.3590 0.0000 0.0000 -2.4115 0.0000 0.0000 0.0000 0.0000 -3.5000 -2.9474 0.0000 0.0000 5.3590 0.0000 0.0000 -2.4115 0.0000 0.0000 0.0000 0.0000 0.0000 0.8038 0.0000 0.0000 0.0000 0.0000 0.0000 0.0000 0.0000 0.0000 -1.0718 0.0000 0.0000 0.0000 0.0000 -38.7500 0.0000 0.0000 2.5000 0.0000 0.0000 0.0000 0.0000 0.0000 0.0000 0.0000 0.0000 38.7500 0.0000 0.0000 -2.5000 0.0000 0.0000 0.0000 0.0000 0.0000
0.0000 100.5548 0.0000 0.0000 0.0000 0.0000 2.5005 -5.1470 0.0000 0.0000 9.3582 0.0000 0.0000 -4.2112 0.0000 0.0000 0.0000 0.0000 -2.5005 -5.1470 0.0000 0.0000 9.3582 0.0000 0.0000 -4.2112 0.0000 0.0000 0.0000 0.0000 0.0000 1.4037 0.0000 0.0000 0.0000 0.0000 0.0000 0.0000 0.0000 0.0000 -1.8716 0.0000 0.0000 0.0000 0.0000 -50.5300 0.0000 0.0000 1.7861 0.0000 0.0000 0.0000 0.0000 0.0000 0.0000 0.0000 0.0000 50.5300 0.0000 0.0000 -1.7861 0.0000 0.0000 0.0000 0.0000 0.0000
0.0000 98.2130 0.0000 0.0000 0.0000 0.0000 1.6377 -7.8587 0.0000 0.0000 14.2885 0.0000 0.0000 -6.4298 0.0000 0.0000 0.0000 0.0000 -1.6377 -7.8587 0.0000 0.0000 14.2885 0.0000 0.0000 -6.4298 0.0000 0.0000 0.0000 0.0000 0.0000 2.1433 0.0000 0.0000 0.0000 0.0000 0.0000 0.0000 0.0000 0.0000 -2.8577 0.0000 0.0000 0.0000 0.0000 -60.6987 0.0000 0.0000 1.1698 0.0000 0.0000 0.0000 0.0000 0.0000 0.0000 0.0000 0.0000 60.6987 0.0000 0.0000 -1.1698 0.0000 0.0000 0.0000 0.0000 0.0000
0.0000 95.5000 0.0000 0.0000 0.0000 0.0000 0.9378 -11.0000 0.0000 0.0000 20.0000 0.0000 0.0000 -9.0000 0.0000 0.0000 0.0000 0.0000 -0.9378 -11.0000 0.0000 0.0000 20.0000 0.0000 0.0000 -9.0000 0.0000 0.0000 0.0000 0.0000 0.0000 3.0000 0.0000 0.0000 0.0000 0.0000 0.0000 0.0000 0.0000 0.0000 -4.0000 0.0000 0.0000 0.0000 0.0000 -68.9471 0.0000 0.0000 0.6699 0.0000 0.0000 0.0000 0.0000 0.0000 0.0000 0.0000 0.0000 68.9471 0.0000 0.0000 -0.6699 0.0000 0.0000 0.0000 0.0000 0.0000
0.0000 92.4984 0.0000 0.0000 0.0000 0.0000 0.4222 -14.4756 0.0000 0.0000 26.3192 0.0000 0.0000 -11.8436 0.0000 0.0000 0.0000 0.0000 -0.4222 -14.4756 0.0000 0.0000 26.3192 0.0000 0.0000 -11.8436 0.0000 0.0000 0.0000 0.0000 0.0000 3.9479 0.0000 0.0000 0.0000 0.0000 0.0000 0.0000 0.0000 0.0000 -5.2638 0.0000 0.0000 0.0000 0.0000 -75.0246 0.0000 0.0000 0.3015 0.0000 0.0000 0.0000 0.0000 0.0000 0.0000 0.0000 0.0000 75.0246 0.0000 0.0000 -0.3015 0.0000 0.0000 0.0000 0.0000 0.0000
0.0000 89.2993 0.0000 0.0000 0.0000 0.0000 0.1063 -18.1797 0.0000 0.0000 33.0541 0.0000 0.0000 -14.8743 0.0000 0.0000 0.0000 0.0000 -0.1063 -18.1797 0.0000 0.0000 33.0541 0.0000 0.0000 -14.8743 0.0000 0.0000 0.0000 0.0000 0.0000 4.9581 0.0000 0.0000 0.0000 0.0000 0.0000 0.0000 0.0000 0.0000 -6.6108 0.0000 0.0000 0.0000 0.0000 -78.7466 0.0000 0.0000 0.0760 0.0000 0.0000 0.0000 0.0000 0.0000 0.0000 0.0000 0.0000 78.7466 0.0000 0.0000 -0.0760 0.0000 0.0000 0.0000 0.0000 0.0000
0.0000 86.0000 0.0000 0.0000 0.0000 0.0000 0.0000 -22.0000 0.0000 0.0000 40.0000 0.0000 0.0000 -18.0000 0.0000 0.0000 0.0000 0.0000 -0.0000 -22.0000 0.0000 0.0000 40.0000 0.0000 0.0000 -18.0000 0.0000 0.0000 0.0000 0.0000 0.0000 6.0000 0.0000 0.0000 0.0000 0.0000 0.0000 0.0000 0.0000 0.0000 -8.0000 0.0000 0.0000 0.0000 0.0000 -80.0000 0.0000 0.0000 0.0000 0.0000 0.0000 0.0000 0.0000 0.0000 0.0000 0.0000 0.0000 80.0000 0.0000 0.0000 -0.0000 0.0000 0.0000 0.0000 0.0000 0.0000
0.0000 89.2993 0.0000 0.0000 0.0000 0.0000 0.1063 -18.1797 0.0000 0.0000 33.0541 0.0000 0.0000 -14.8743 0.0000 0.0000 0.0000 0.0000 -0.1063 -18.1797 0.0000 0.0000 33.0541 0.0000 0.0000 -14.8743 0.0000 0.0000 0.0000 0.0000 0.0000 4.9581 0.0000 0.0000 0.0000 0.0000 0.0000 0.0000 0.0000 0.0000 -6.6108 0.0000 0.0000 0.0000 0.0000 -78.7466 0.0000 0.0000 0.0760 0.0000 0.0000 0.0000 0.0000 0.0000 0.0000 0.0000 0.0000 78.7466 0.0000 0.0000 -0.0760 0.0000 0.0000 0.0000 0.0000 0.0000
0.0000 92.4984 0.0000 0.0000 0.0000 0.0000 0.4222 -14.4756 0.0000 0.0000 26.3192 0.0000 0.0000 -11.8436 0.0000 0.0000 0.0000 0.0000 -0.4222 -14.4756 0.0000 0.0000 26.3192 0.0000 0.0000 -11.8436 0.0000 0.0000 0.0000 0.0000 0.0000 3.9479 0.0000 0.0000 0.0000 0.0000 0.0000 0.0000 0.0000 0.0000 -5.2638 0.0000 0.0000 0.0000 0.0000 -75.0246 0.0000 0.0000 0.3015 0.0000 0.0000 0.0000 0.0000 0.0000 0.0000 0.0000 0.0000 75.0246 0.0000 0.0000 -0.3015 0.0000 0.0000 0.0000 0.0000 0.0000
0.0000 95.5000 0.0000 0.0000 0.0000 0.0000 0.9378 -11.0000 0.0000 0.0000 20.0000 0.0000 0.0000 -9.0000 0.0000 0.0000 0.0000 0.0000 -0.9378 -11.0000 0.0000 0.0000 20.0000 0.0000 0.0000 -9.0000 0.0000 0.0000 0.0000 0.0000 0.0000 3.0000 0.0000 0.0000 0.0000 0.0000 0.0000 0.0000 0.0000 0.0000 -4.0000 0.0000 0.0000 0.0000 0.0000 -68.9471 0.0000 0.0000 0.6699 0.0000 0.0000 0.0000 0.0000 0.0000 0.0000 0.0000 0.0000 68.9471 0.0000 0.0000 -0.6699 0.0000 0.0000 0.0000 0.0000 0.0000
0.0000 98.2130 0.0000 0.0000 0.0000 0.0000 1.6377 -7.8587 0.0000 0.0000 14.2885 0.0000 0.0000 -6.4298 0.0000 0.0000 0.0000 0.0000 -1.6377 -7.8587 0.0000 0.0000 14.2885 0.0000 0.0000 -6.4298 0.0000 0.0000 0.0000 0.0000 0.0000 2.1433 0.0000 0.0000 0.0000 0.0000 0.0000 0.0000 0.0000 0.0000 -2.8577 0.0000 0.0000 0.0000 0.0000 -60.6987 0.0000 0.0000 1.1698 0.0000 0.0000 0.0000 0.0000 0.0000 0.0000 0.0000 0.0000 60.6987 0.0000 0.0000 -1.1698 0.0000 0.0000 0.0000 0.0000 0.0000
0.0000 100.5548 0.0000 0.0000 0.0000 0.0000 2.5005 -5.1470 0.0000 0.0000 9.3582 0.0000 0.0000 -4.2112 0.0000 0.0000 0.0000 0.0000 -2.5005 -5.1470 0.0000 0.0000 9.3582 0.0000 0.0000 -4.2112 0.0000 0.0000 0.0000 0.0000 0.0000 1.4037 0.0000 0.0000 0.0000 0.0000 0.0000 0.0000 0.0000 0.0000 -1.8716 0.0000 0.0000 0.0000 0.0000 -50.5300 0.0000 0.0000 1.7861 0.0000 0.0000 0.0000 0.0000 0.0000 0.0000 0.0000 0.0000 50.5300 0.0000 0.0000 -1.7861 0.0000 0.0000 0.0000 0.0000 0.0000
0.0000 102.4545 0.0000 0.0000 0.0000 0.0000 3.5000 -2.9474 0.0000 0.0000 5.3590 0.0000 0.0000 -2.4115 0.0000 0.0000 0.0000 0.0000 -3.5000 -2.9474 0.0000 0.0000 5.3590 0.0000 0.0000 -2.4115 0.0000 0.0000 0.0000 0.0000 0.0000 0.8038 0.0000 0.0000 0.0000 0.0000 0.0000 0.0000 0.0000 0.0000 -1.0718 0.0000 0.0000 0.0000 0.0000 -38.7500 0.0000 0.0000 2.5000 0.0000 0.0000 0.0000 0.0000 0.0000 0.0000 0.0000 0.0000 38.7500 0.0000 0.0000 -2.5000 0.0000 0.0000 0.0000 0.0000 0.0000
0.0000 103.8542 0.0000 0.0000 0.0000 0.0000 4.6059 -1.3268 0.0000 0.0000 2.4123 0.0000 0.0000 -1.0855 0.0000 0.0000 0.0000 0.0000 -4.6059 -1.3268 0.0000 0.0000 2.4123 0.0000 0.0000 -1.0855 0.0000 0.0000 0.0000 0.0000 0.0000 0.3618 0.0000 0.0000 0.0000 0.0000 0.0000 0.0000 0.0000 0.0000 -0.4825 0.0000 0.0000 0.0000 0.0000 -25.7167 0.0000 0.0000 3.2899 0.0000 0.0000 0.0000 0.0000 0.0000 0.0000 0.0000 0.0000 25.7167 0.0000 0.0000 -3.2899 0.0000 0.0000 0.0000 0.0000 0.0000
0.0000 104.7113 0.0000 0.0000 0.0000 0.0000 5.7845 -0.3342 0.0000 0.0000 0.6077 0.0000 0.0000 -0.2735 0.0000 0.0000 0.0000 0.0000 -5.7845 -0.3342 0.0000 0.0000 0.6077 0.0000 0.0000 -0.2735 0.0000 0.0000 0.0000 0.0000 0.0000 0.0912 0.0000 0.0000 0.0000 0.0000 0.0000 0.0000 0.0000 0.0000 -0.1215 0.0000 0.0000 0.0000 0.0000 -11.8260 0.0000 0.0000 4.1318 0.0000 0.0000 0.0000 0.0000 0.0000 0.0000 0.0000 0.0000 11.8260 0.0000 0.0000 -4.1318 0.0000 0.0000 0.0000 0.0000 0.0000
0.0000 105.0000 0.0000 0.0000 0.0000 0.0000 7.0000 -0.0000 0.0000 0.0000 0.0000 0.0000 0.0000 -0.0000 0.0000 0.0000 0.0000 0.0000 -7.0000 -0.0000 0.0000 0.0000 0.0000 0.0000 0.0000 -0.0000 0.0000 0.0000 0.0000 0.0000 0.0000 0.0000 0.0000 0.0000 0.0000 0.0000 0.0000 0.0000 0.0000 0.0000 -0.0000 0.0000 0.0000 0.0000 0.0000 2.5000 0.0000 0.0000 5.0000 0.0000 0.0000 0.0000 0.0000 0.0000 0.0000 0.0000 0.0000 -2.5000 0.0000 0.0000 -5.0000 0.0000 0.0000 0.0000 0.0000 0.0000
0.0000 104.7113 0.0000 0.0000 0.0000 0.0000 8.2155 -0.3342 0.0000 0.0000 0.6077 0.0000 0.0000 -0.2735 0.0000 0.0000 0.0000 0.0000 -8.2155 -0.3342 0.0000 0.0000 0.6077 0.0000 0.0000 -0.2735 0.0000 0.0000 0.0000 0.0000 0.0000 0.0912 0.0000 0.0000 0.0000 0.0000 0.0000 0.0000 0.0000 0.0000 -0.1215 0.0000 0.0000 0.0000 0.0000 16.8260 0.0000 0.0000 5.8682 0.0000 0.0000 0.0000 0.0000 0.0000 0.0000 0.0000 0.0000 -16.8260 0.0000 0.0000 -5.8682 0.0000 0.0000 0.0000 0.0000 0.0000
0.0000 103.8542 0.0000 0.0000 0.0000 0.0000 9.3941 -1.3268 0.0000 0.0000 2.4123 0.0000 0.0000 -1.0855 0.0000 0.0000 0.0000 0.0000 -9.3941 -1.3268 0.0000 0.0000 2.4123 0.0000 0.0000 -1.0855 0.0000 0.0000 0.0000 0.0000 0.0000 0.3618 0.0000 0.0000 0.0000 0.0000 0.0000 0.0000 0.0000 0.0000 -0.4825 0.0000 0.0000 0.0000 0.0000 30.7167 0.0000 0.0000 6.7101 0.0000 0.0000 0.0000 0.0000 0.0000 0.0000 0.0000 0.0000 -30.7167 0.0000 0.0000 -6.7101 0.0000 0.0000 0.0000 0.0000 0.0000
0.0000 102.4545 0.0000 0.0000 0.0000 0.0000 10.5000 -2.9474 0.0000 0.0000 5.3590 0.0000 0.0000 -2.4115 0.0000 0.0000 0.0000 0.0000 -10.5000 -2.9474 0.0000 0.0000 5.3590 0.0000 0.0000 -2.4115 0.0000 0.0000 0.0000 0.0000 0.0000 0.8038 0.0000 0.0000 0.0000 0.0000 0.0000 0.0000 0.0000 0.0000 -1.0718 0.0000 0.0000 0.0000 0.0000 43.7500 0.0000 0.0000 7.5000 0.0000 0.0000 0.0000 0.0000 0.0000 0.0000 0.0000 0.0000 -43.7500 0.0000 0.0000 -7.5000 0.0000 0.0000 0.0000 0.0000 0.0000
0.0000 100.5548 0.0000 0.0000 0.0000 0.0000 11.4995 -5.1470 0.0000 0.0000 9.3582 0.0000 0.0000 -4.2112 0.0000 0.0000 0.0000 0.0000 -11.4995 -5.1470 0.0000 0.0000 9.3582 0.0000 0.0000 -4.2112 0.0000 0.0000 0.0000 0.0000 0.0000 1.4037 0.0000 0.0000 0.0000 0.0000 0.0000 0.0000 0.0000 0.0000 -1.8716 0.0000 0.0000 0.0000 0.0000 55.5300 0.0000 0.0000 8.2139 0.0000 0.0000 0.0000 0.0000 0.0000 0.0000 0.0000 0.0000 -55.5300 0.0000 0.0000 -8.2139 0.0000 0.0000 0.0000 0.0000 0.0000
0.0000 98.2130 0.0000 0.0000 0.0000 0.0000 12.3623 -7.8587 0.0000 0.0000 14.2885 0.0000 0.0000 -6.4298 0.0000 0.0000 0.0000 0.0000 -12.3623 -7.8587 0.0000 0.0000 14.2885 0.0000 0.0000 -6.4298 0.0000 0.0000 0.0000 0.0000 0.0000 2.1433 0.0000 0.0000 0.0000 0.0000 0.0000 0.0000 0.0000 0.0000 -2.8577 0.0000 0.0000 0.0000 0.0000 65.6987 0.0000 0.0000 8.8302 0.0000 0.0000 0.0000 0.0000 0.0000 0.0000 0.0000 0.0000 -65.6987 0.0000 0.0000 -8.8302 0.0000 0.0000 0.0000 0.0000 0.0000
0.0000 95.5000 0.0000 0.0000 0.0000 0.0000 13.0622 -11.0000 0.0000 0.0000 20.0000 0.0000 0.0000 -9.0000 0.0000 0.0000 0.0000 0.0000 -13.0622 -11.0000 0.0000 0.0000 20.0000 0.0000 0.0000 -9.0000 0.0000 0.0000 0.0000 0.0000 0.0000 3.0000 0.0000 0.0000 0.0000 0.0000 0.0000 0.0000 0.0000 0.0000 -4.0000 0.0000 0.0000 0.0000 0.0000 73.9471 0.0000 0.0000 9.3301 0.0000 0.0000 0.0000 0.0000 0.0000 0.0000 0.0000 0.0000 -73.9471 0.0000 0.0000 -9.3301 0.0000 0.0000 0.0000 0.0000 0.0000
0.0000 92.4984 0.0000 0.0000 0.0000 0.0000 13.5778 -14.4756 0.0000 0.0000 26.3192 0.0000 0.0000 -11.8436 0.0000 0.0000 0.0000 0.0000 -13.5778 -14.4756 0.0000 0.0000 26.3192 0.0000 0.0000 -11.8436 0.0000 0.0000 0.0000 0.0000 0.0000 3.9479 0.0000 0.0000 0.0000 0.0000 0.0000 0.0000 0.0000 0.0000 -5.2638 0.0000 0.0000 0.0000 0.0000 80.0246 0.0000 0.0000 9.6985 0.0000 0.0000 0.0000 0.0000 0.0000 0.0000 0.0000 0.0000 -80.0246 0.0000 0.0000 -9.6985 0.0000 0.0000 0.0000 0.0000 0.0000
0.0000 89.2993 0.0000 0.0000 0.0000 0.0000 13.8937 -18.1797 0.0000 0.0000 33.0541 0.0000 0.0000 -14.8743 0.0000 0.0000 0.0000 0.0000 -13.8937 -18.1797 0.0000 0.0000 33.0541 0.0000 0.0000 -14.8743 0.0000 0.0000 0.0000 0.0000 0.0000 4.9581 0.0000 0.0000 0.0000 0.0000 0.0000 0.0000 0.0000 0.0000 -6.6108 0.0000 0.0000 0.0000 0.0000 83.7466 0.0000 0.0000 9.9240 0.0000 0.0000 0.0000 0.0000 0.0000 0.0000 0.0000 0.0000 -83.7466 0.0000 0.0000 -9.9240 0.0000 0.0000 0.0000 0.0000 0.0000
0.0000 86.0000 0.0000 0.0000 0.0000 0.0000 14.0000 -22.0000 0.0000 0.0000 40.0000 0.0000 0.0000 -18.0000 0.0000 0.0000 0.0000 0.0000 -14.0000 -22.0000 0.0000 0.0000 40.0000 0.0000 0.0000 -18.0000 0.0000 0.0000 0.0000 0.0000 0.0000 6.0000 0.0000 0.0000 0.0000 0.0000 0.0000 0.0000 0.0000 0.0000 -8.0000 0.0000 0.0000 0.0000 0.0000 85.0000 0.0000 0.0000 10.0000 0.0000 0.0000 0.0000 0.0000 0.0000 0.0000 0.0000 0.0000 -85.0000 0.0000 0.0000 -10.0000 0.0000 0.0000 0.0000 0.0000 0.0000
0.0000 89.2993 0.0000 0.0000 0.0000 0.0000 13.8937 -18.1797 0.0000 0.0000 33.0541 0.0000 0.0000 -14.8743 0.0000 0.0000 0.0000 0.0000 -13.8937 -18.1797 0.0000 0.0000 33.0541 0.0000 0.0000 -14.8743 0.0000 0.0000 0.0000 0.0000 0.0000 4.9581 0.0000 0.0000 0.0000 0.0000 0.0000 0.0000 0.0000 0.0000 -6.6108 0.0000 0.0000 0.0000 0.0000 83.7466 0.0000 0.0000 9.9240 0.0000 0.0000 0.0000 0.0000 0.0000 0.0000 0.0000 0.0000 -83.7466 0.0000 0.0000 -9.9240 0.0000 0.0000 0.0000 0.0000 0.0000
0.0000 92.4984 0.0000 0.0000 0.0000 0.0000 13.5778 -14.4756 0.0000 0.0000 26.3192 0.0000 0.0000 -11.8436 0.0000 0.0000 0.0000 0.0000 -13.5778 -14.4756 0.0000 0.0000 26.3192 0.0000 0.0000 -11.8436 0.0000 0.0000 0.0000 0.0000 0.0000 3.9479 0.0000 0.0000 0.0000 0.0000 0.0000 0.0000 0.0000 0.0000 -5.2638 0.0000 0.0000 0.0000 0.0000 80.0246 0.0000 0.0000 9.6985 0.0000 0.0000 0.0000 0.0000 0.0000 0.0000 0.0000 0.0000 -80.0246 0.0000 0.0000 -9.6985 0.0000 0.0000 0.0000 0.0000 0.0000
0.0000 95.5000 0.0000 0.0000 0.0000 0.0000 13.0622 -11.0000 0.0000 0.0000 20.0000 0.0000 0.0000 -9.0000 0.0000 0.0000 0.0000 0.0000 -13.0622 -11.0000 0.0000 0.0000 20.0000 0.0000 0.0000 -9.0000 0.0000 0.0000 0.0000 0.0000 0.0000 3.0000 0.0000 0.0000 0.0000 0.0000 0.0000 0.0000 0.0000 0.0000 -4.0000 0.0000 0.0000 0.0000 0.0000 73.9471 0.0000 0.0000 9.3301 0.0000 0.0000 0.0000 0.0000 0.0000 0.0000 0.0000 0.0000 -73.9471 0.0000 0.0000 -9.3301 0.0000 0.0000 0.0000 0.0000 0.0000
0.0000 98.2130 0.0000 0.0000 0.0000 0.0000 12.3623 -7.8587 0.0000 0.0000 14.2885 0.0000 0.0000 -6.4298 0.0000 0.0000 0.0000 0.0000 -12.3623 -7.8587 0.0000 0.0000 14.2885 0.0000 0.0000 -6.4298 0.0000 0.0000 0.0000 0.0000 0.0000 2.1433 0.0000 0.0000 0.0000 0.0000 0.0000 0.0000 0.0000 0.0000 -2.8577 0.0000 0.0000 0.0000 0.0000 65.6987 0.0000 0.0000 8.8302 0.0000 0.0000 0.0000 0.0000 0.0000 0.0000 0.0000 0.0000 -65.6987 0.0000 0.0000 -8.8302 0.0000 0.0000 0.0000 0.0000 0.0000
0.0000 100.5548 0.0000 0.0000 0.0000 0.0000 11.4995 -5.1470 0.0000 0.0000 9.3582 0.0000 0.0000 -4.2112 0.0000 0.0000 0.0000 0.0000 -11.4995 -5.1470 0.0000 0.0000 9.3582 0.0000 0.0000 -4.2112 0.0000 0.0000 0.0000 0.0000 0.0000 1.4037 0.0000 0.0000 0.0000 0.0000 0.0000 0.0000 0.0000 0.0000 -1.8716 0.0000 0.0000 0.0000 0.0000 55.5300 0.0000 0.0000 8.2139 0.0000 0.0000 0.0000 0.0000 0.0000 0.0000 0.0000 0.0000 -55.5300 0.0000 0.0000 -8.2139 0.0000 0.0000 0.0000 0.0000 0.0000
0.0000 102.4545 0.0000 0.0000 0.0000 0.0000 10.5000 -2.9474 0.0000 0.0000 5.3590 0.0000 0.0000 -2.4115 0.0000 0.0000 0.0000 0.0000 -10.5000 -2.9474 0.0000 0.0000 5.3590 0.0000 0.0000 -2.4115 0.0000 0.0000 0.0000 0.0000 0.0000 0.8038 0.0000 0.0000 0.0000 0.0000 0.0000 0.0000 0.0000 0.0000 -1.0718 0.0000 0.0000 0.0000 0.0000 43.7500 0.0000 0.0000 7.5000 0.0000 0.0000 0.0000 0.0000 0.0000 0.0000 0.0000 0.0000 -43.7500 0.0000 0.0000 -7.5000 0.0000 0.0000 0.0000 0.0000 0.0000
0.0000 103.8542 0.0000 0.0000 0.0000 0.0000 9.3941 -1.3268 0.0000 0.0000 2.4123 0.0000 0.0000 -1.0855 0.0000 0.0000 0.0000 0.0000 -9.3941 -1.3268 0.0000 0.0000 2.4123 0.0000 0.0000 -1.0855 0.0000 0.0000 0.0000 0.0000 0.0000 0.3618 0.0000 0.0000 0.0000 0.0000 0.0000 0.0000 0.0000 0.0000 -0.4825 0.0000 0.0000 0.0000 0.0000 30.7167 0.0000 0.0000 6.7101 0.0000 0.0000 0.0000 0.0000 0.0000 0.0000 0.0000 0.0000 -30.7167 0.0000 0.0000 -6.7101 0.0000 0.0000 0.0000 0.0000 0.0000
0.0000 104.7113 0.0000 0.0000 0.0000 0.0000 8.2155 -0.3342 0.0000 0.0000 0.6077 0.0000 0.0000 -0.2735 0.0000 0.0000 0.0000 0.0000 -8.2155 -0.3342 0.0000 0.0000 0.6077 0.0000 0.0000 -0.2735 0.0000 0.0000 0.0000 0.0000 0.0000 0.0912 0.0000 0.0000 0.0000 0.0000 0.0000 0.0000 0.0000 0.0000 -0.1215 0.0000 0.0000 0.0000 0.0000 16.8260 0.0000 0.0000 5.8682 0.0000 0.0000 0.0000 0.0000 0.0000 0.0000 0.0000 0.0000 -16.8260 0.0000 0.0000 -5.8682 0.0000 0.0000 0.0000 0.0000 0.0000
0.0000 105.0000 0.0000 0.0000 0.0000 0.0000 7.0000 -0.0000 0.0000 0.0000 0.0000 0.0000 0.0000 -0.0000 0.0000 0.0000 0.0000 0.0000 -7.0000 -0.0000 0.0000 0.0000 0.0000 0.0000 0.0000 -0.0000 0.0000 0.0000 0.0000 0.0000 0.0000 0.0000 0.0000 0.0000 0.0000 0.0000 0.0000 0.0000 0.0000 0.0000 -0.0000 0.0000 0.0000 0.0000 0.0000 2.5000 0.0000 0.0000 5.0000 0.0000 0.0000 0.0000 0.0000 0.0000 0.0000 0.0000 0.0000 -2.5000 0.0000 0.0000 -5.0000 0.0000 0.0000 0.0000 0.0000 0.0000
0.0000 104.7113 0.0000 0.0000 0.0000 0.0000 5.7845 -0.3342 0.0000 0.0000 0.6077 0.0000 0.0000 -0.2735 0.0000 0.0000 0.0000 0.0000 -5.7845 -0.3342 0.0000 0.0000 0.6077 0.0000 0.0000 -0.2735 0.0000 0.0000 0.0000 0.0000 0.0000 0.0912 0.0000 0.0000 0.0000 0.0000 0.0000 0.0000 0.0000 0.0000 -0.1215 0.0000 0.0000 0.0000 0.0000 -11.8260 0.0000 0.0000 4.1318 0.0000 0.0000 0.0000 0.0000 0.0000 0.0000 0.0000 0.0000 11.8260 0.0000 0.0000 -4.1318 0.0000 0.0000 0.0000 0.0000 0.0000
0.0000 103.8542 0.0000 0.0000 0.0000 0.0000 4.6059 -1.3268 0.0000 0.0000 2.4123 0.0000 0.0000 -1.0855 0.0000 0.0000 0.0000 0.0000 -4.6059 -1.3268 0.0000 0.0000 2.4123 0.0000 0.0000 -1.0855 0.0000 0.0000 0.0000 0.0000 0.0000 0.3618 0.0000 0.0000 0.0000 0.0000 0.0000 0.0000 0.0000 0.0000 -0.4825 0.0000 0.0000 0.0000 0.0000 -25.7167 0.0000 0.0000 3.2899 0.0000 0.0000 0.0000 0.0000 0.0000 0.0000 0.0000 0.0000 25.7167 0.0000 0.0000 -3.2899 0.0000 0.0000 0.0000 0.0000 0.0000
0.0000 102.4545 0.0000 0.0000 0.0000 0.0000 3.5000 -2.9474 0.0000 0.0000 5.3590 0.0000 0.0000 -2.4115 0.0000 0.0000 0.0000 0.0000 -3.5000 -2.9474 0.0000 0.0000 5.3590 0.0000 0.0000 -2.4115 0.0000 0.0000 0.0000 0.0000 0.0000 0.8038 0.0000 0.0000 0.0000 0.0000 0.0000 0.0000 0.0000 0.0000 -1.0718 0.0000 0.0000 0.0000 0.0000 -38.7500 0.0000 0.0000 2.5000 0.0000 0.0000 0.0000 0.0000 0.0000 0.0000 0.0000 0.0000 38.7500 0.0000 0.0000 -2.5000 0.0000 0.0000 0.0000 0.0000 0.0000
0.0000 100.5548 0.0000 0.0000 0.0000 0.0000 2.5005 -5.1470 0.0000 0.0000 9.3582 0.0000 0.0000 -4.2112 0.0000 0.0000 0.0000 0.0000 -2.5005 -5.1470 0.0000 0.0000 9.3582 0.0000 0.0000 -4.2112 0.0000 0.0000 0.0000 0.0000 0.0000 1.4037 0.0000 0.0000 0.0000 0.0000 0.0000 0.0000 0.0000 0.0000 -1.8716 0.0000 0.0000 0.0000 0.0000 -50.5300 0.0000 0.0000 1.7861 0.0000 0.0000 0.0000 0.0000 0.0000 0.0000 0.0000 0.0000 50.5300 0.0000 0.0000 -1.7861 0.0000 0.0000 0.0000 0.0000 0.0000
0.0000 98.2130 0.0000 0.0000 0.0000 0.0000 1.6377 -7.8587 0.0000 0.0000 14.2885 0.0000 0.0000 -6.4298 0.0000 0.0000 0.0000 0.0000 -1.6377 -7.8587 0.0000 0.0000 14.2885 0.0000 0.0000 -6.4298 0.0000 0.0000 0.0000 0.0000 0.0000 2.1433 0.0000 0.0000 0.0000 0.0000 0.0000 0.0000 0.0000 0.0000 -2.8577 0.0000 0.0000 0.0000 0.0000 -60.6987 0.0000 0.0000 1.1698 0.0000 0.0000 0.0000 0.0000 0.0000 0.0000 0.0000 0.0000 60.6987 0.0000 0.0000 -1.1698 0.0000 0.0000 0.0000 0.0000 0.0000
0.0000 95.5000 0.0000 0.0000 0.0000 0.0000 0.9378 -11.0000 0.0000 0.0000 20.0000 0.0000 0.0000 -9.0000 0.0000 0.0000 0.0000 0.0000 -0.9378 -11.0000 0.0000 0.0000 20.0000 0.0000 0.0000 -9.0000 0.0000 0.0000 0.0000 0.0000 0.0000 3.0000 0.0000 0.0000 0.0000 0.0000 0.0000 0.0000 0.0000 0.0000 -4.0000 0.0000 0.0000 0.0000 0.0000 -68.9471 0.0000 0.0000 0.6699 0.0000 0.0000 0.0000 0.0000 0.0000 0.0000 0.0000 0.0000 68.9471 0.0000 0.0000 -0.6699 0.0000 0.0000 0.0000 0.0000 0.0000
0.0000 92.4984 0.0000 0.0000 0.0000 0.0000 0.4222 -14.4756 0.0000 0.0000 26.3192 0.0000 0.0000 -11.8436 0.0000 0.0000 0.0000 0.0000 -0.4222 -14.4756 0.0000 0.0000 26.3192 0.0000 0.0000 -11.8436 0.0000 0.0000 0.0000 0.0000 0.0000 3.9479 0.0000 0.0000 0.0000 0.0000 0.0000 0.0000 0.0000 0.0000 -5.2638 0.0000 0.0000 0.0000 0.0000 -75.0246 0.0000 0.0000 0.3015 0.0000 0.0000 0.0000 0.0000 0.0000 0.0000 0.0000 0.0000 75.0246 0.0000 0.0000 -0.3015 0.0000 0.0000 0.0000 0.0000 0.0000
0.0000 89.2993 0.0000 0.0000 0.0000 0.0000 0.1063 -18.1797 0.0000 0.0000 33.0541 0.0000 0.0000 -14.8743 0.0000 0.0000 0.0000 0.0000 -0.1063 -18.1797 0.0000 0.0000 33.0541 0.0000 0.0000 -14.8743 0.0000 0.0000 0.0000 0.0000 0.0000 4.9581 0.0000 0.0000 0.0000 0.0000 0.0000 0.0000 0.0000 0.0000 -6.6108 0.0000 0.0000 0.0000 0.0000 -78.7466 0.0000 0.0000 0.0760 0.0000 0.0000 0.0000 0.0000 0.0000 0.0000 0.0000 0.0000 78.7466 0.0000 0.0000 -0.0760 0.0000 0.0000 0.0000 0.0000 0.0000
0.0000 86.0000 0.0000 0.0000 0.0000 0.0000 0.0000 -22.0000 0.0000 0.0000 40.0000 0.0000 0.0000 -18.0000 0.0000 0.0000 0.0000 0.0000 -0.0000 -22.0000 0.0000 0.0000 40.0000 0.0000 0.0000 -18.0000 0.0000 0.0000 0.0000 0.0000 0.0000 6.0000 0.0000 0.0000 0.0000 0.0000 0.0000 0.0000 0.0000 0.0000 -8.0000 0.0000 0.0000 0.0000 0.0000 -80.0000 0.0000 0.0000 0.0000 0.0000 0.0000 0.0000 0.0000 0.0000 0.0000 0.0000 0.0000 80.0000 0.0000 0.0000 -0.0000 0.0000 0.0000 0.0000 0.0000 0.0000
0.0000 89.2993 0.0000 0.0000 0.0000 0.0000 0.1063 -18.1797 0.0000 0.0000 33.0541 0.0000 0.0000 -14.8743 0.0000 0.0000 0.0000 0.0000 -0.1063 -18.1797 0.0000 0.0000 33.0541 0.0000 0.0000 -14.8743 0.0000 0.0000 0.0000 0.0000 0.0000 4.9581 0.0000 0.0000 0.0000 0.0000 0.0000 0.0000 0.0000 0.0000 -6.6108 0.0000 0.0000 0.0000 0.0000 -78.7466 0.0000 0.0000 0.0760 0.0000 0.0000 0.0000 0.0000 0.0000 0.0000 0.0000 0.0000 78.7466 0.0000 0.0000 -0.0760 0.0000 0.0000 0.0000 0.0000 0.0000
0.0000 92.4984 0.0000 0.0000 0.0000 0.0000 0.4222 -14.4756 0.0000 0.0000 26.3192 0.0000 0.0000 -11.8436 0.0000 0.0000 0.0000 0.0000 -0.4222 -14.4756 0.0000 0.0000 26.3192 0.0000 0.0000 -11.8436 0.0000 0.0000 0.0000 0.0000 0.0000 3.9479 0.0000 0.0000 0.0000 0.0000 0.0000 0.0000 0.0000 0.0000 -5.2638 0.0000 0.0000 0.0000 0.0000 -75.0246 0.0000 0.0000 0.3015 0.0000 0.0000 0.0000 0.0000 0.0000 0.0000 0.0000 0.0000 75.0246 0.0000 0.0000 -0.3015 0.0000 0.0000 0.0000 0.0000 0.0000
0.0000 95.5000 0.0000 0.0000 0.0000 0.0000 0.9378 -11.0000 0.0000 0.0000 20.0000 0.0000 0.0000 -9.0000 0.0000 0.0000 0.0000 0.0000 -0.9378 -11.0000 0.0000 0.0000 20.0000 0.0000 0.0000 -9.0000 0.0000 0.0000 0.0000 0.0000 0.0000 3.0000 0.0000 0.0000 0.0000 0.0000 0.0000 0.0000 0.0000 0.0000 -4.0000 0.0000 0.0000 0.0000 0.0000 -68.9471 0.0000 0.0000 0.6699 0.0000 0.0000 0.0000 0.0000 0.0000 0.0000 0.0000 0.0000 68.9471 0.0000 0.0000 -0.6699 0.0000 0.0000 0.0000 0.0000 0.0000
0.0000 98.2130 0.0000 0.0000 0.0000 0.0000 1.6377 -7.8587 0.0000 0.0000 14.2885 0.0000 0.0000 -6.4298 0.0000 0.0000 0.0000 0.0000 -1.6377 -7.8587 0.0000 0.0000 14.2885 0.0000 0.0000 -6.4298 0.0000 0.0000 0.0000 0.0000 0.0000 2.1433 0.0000 0.0000 0.0000 0.0000 0.0000 0.0000 0.0000 0.0000 -2.8577 0.0000 0.0000 0.0000 0.0000 -60.6987 0.0000 0.0000 1.1698 0.0000 0.0000 0.0000 0.0000 0.0000 0.0000 0.0000 0.0000 60.6987 0.0000 0.0000 -1.1698 0.0000 0.0000 0.0000 0.0000 0.0000
0.0000 100.5548 0.0000 0.0000 0.0000 0.0000 2.5005 -5.1470 0.0000 0.0000 9.3582 0.0000 0.0000 -4.2112 0.0000 0.0000 0.0000 0.0000 -2.5005 -5.1470 0.0000 0.0000 9.3582 0.0000 0.0000 -4.2112 0.0000 0.0000 0.0000 0.0000 0.0000 1.4037 0.0000 0.0000 0.0000 0.0000 0.0000 0.0000 0.0000 0.0000 -1.8716 0.0000 0.0000 0.0000 0.0000 -50.5300 0.0000 0.0000 1.7861 0.0000 0.0000 0.0000 0.0000 0.0000 0.0000 0.0000 0.0000 50.5300 0.0000 0.0000 -1.7861 0.0000 0.0000 0.0000 0.0000 0.0000
0.0000 102.4545 0.0000 0.0000 0.0000 0.0000 3.5000 -2.9474 0.0000 0.0000 5.3590 0.0000 0.0000 -2.4115 0.0000 0.0000 0.0000 0.0000 -3.5000 -2.9474 0.0000 0.0000 5.3590 0.0000 0.0000 -2.4115 0.0000 0.0000 0.0000 0.0000 0.0000 0.8038 0.0000 0.0000 0.0000 0.0000 0.0000 0.0000 0.0000 0.0000 -1.0718 0.0000 0.0000 0.0000 0.0000 -38.7500 0.0000 0.0000 2.5000 0.0000 0.0000 0.0000 0.0000 0.0000 0.0000 0.0000 0.0000 38.7500 0.0000 0.0000 -2.5000 0.0000 0.0000 0.0000 0.0000 0.0000
0.0000 103.8542 0.0000 0.0000 0.0000 0.0000 4.6059 -1.3268 0.0000 0.0000 2.4123 0.0000 0.0000 -1.0855 0.0000 0.0000 0.0000 0.0000 -4.6059 -1.3268 0.0000 0.0000 2.4123 0.0000 0.0000 -1.0855 0.0000 0.0000 0.0000 0.0000 0.0000 0.3618 0.0000 0.0000 0.0000 0.0000 0.0000 0.0000 0.0000 0.0000 -0.4825 0.0000 0.0000 0.0000 0.0000 -25.7167 0.0000 0.0000 3.2899 0.0000 0.0000 0.0000 0.0000 0.0000 0.0000 0.0000 0.0000 25.7167 0.0000 0.0000 -3.2899 0.0000 0.0000 0.0000 0.0000 0.0000
0.0000 104.7113 0.0000 0.0000 0.0000 0.0000 5.7845 -0.3342 0.0000 0.0000 0.6077 0.0000 0.0000 -0.2735 0.0000 0.0000 0.0000 0.0000 -5.7845 -0.3342 0.0000 0.0000 0.6077 0.0000 0.0000 -0.2735 0.0000 0.0000 0.0000 0.0000 0.0000 0.0912 0.0000 0.0000 0.0000 0.0000 0.0000 0.0000 0.0000 0.0000 -0.1215 0.0000 0.0000 0.0000 0.0000 -11.8260 0.0000 0.0000 4.1318 0.0000 0.0000 0.0000 0.0000 0.0000 0.0000 0.0000 0.0000 11.8260 0.0000 0.0000 -4.1318 0.0000 0.0000 0.0000 0.0000 0.0000
0.0000 105.0000 0.0000 0.0000 0.0000 0.0000 7.0000 -0.0000 0.0000 0.0000 0.0000 0.0000 0.0000 -0.0000 0.0000 0.0000 0.0000 0.0000 -7.0000 -0.0000 0.0000 0.0000 0.0000 0.0000 0.0000 -0.0000 0.0000 0.0000 0.0000 0.0000 0.0000 0.0000 0.0000 0.0000 0.0000 0.0000 0.0000 0.0000 0.0000 0.0000 -0.0000 0.0000 0.0000 0.0000 0.0000 2.5000 0.0000 0.0000 5.0000 0.0000 0.0000 0.0000 0.0000 0.0000 0.0000 0.0000 0.0000 -2.5000 0.0000 0.0000 -5.0000 0.0000 0.0000 0.0000 0.0000 0.0000
0.0000 104.7113 0.0000 0.0000 0.0000 0.0000 8.2155 -0.3342 0.0000 0.0000 0.6077 0.0000 0.0000 -0.2735 0.0000 0.0000 0.0000 0.0000 -8.2155 -0.3342 0.0000 0.0000 0.6077 0.0000 0.0000 -0.2735 0.0000 0.0000 0.0000 0.0000 0.0000 0.0912 0.0000 0.0000 0.0000 0.0000 0.0000 0.0000 0.0000 0.0000 -0.1215 0.0000 0.0000 0.0000 0.0000 16.8260 0.0000 0.0000 5.8682 0.0000 0.0000 0.0000 0.0000 0.0000 0.0000 0.0000 0.0000 -16.8260 0.0000 0.0000 -5.8682 0.0000 0.0000 0.0000 0.0000 0.0000
0.0000 103.8542 0.0000 0.0000 0.0000 0.0000 9.3941 -1.3268 0.0000 0.0000 2.4123 0.0000 0.0000 -1.0855 0.0000 0.0000 0.0000 0.0000 -9.3941 -1.3268 0.0000 0.0000 2.4123 0.0000 0.0000 -1.0855 0.0000 0.0000 0.0000 0.0000 0.0000 0.3618 0.0000 0.0000 0.0000 0.0000 0.0000 0.0000 0.0000 0.0000 -0.4825 0.0000 0.0000 0.0000 0.0000 30.7167 0.0000 0.0000 6.7101 0.0000 0.0000 0.0000 0.0000 0.0000 0.0000 0.0000 0.0000 -30.7167 0.0000 0.0000 -6.7101 0.0000 0.0000 0.0000 0.0000 0.0000
0.0000 102.4545 0.0000 0.0000 0.0000 0.0000 10.5000 -2.9474 0.0000 0.0000 5.3590 0.0000 0.0000 -2.4115 0.0000 0.0000 0.0000 0.0000 -10.5000 -2.9474 0.0000 0.0000 5.3590 0.0000 0.0000 -2.4115 0.0000 0.0000 0.0000 0.0000 0.0000 0.8038 0.0000 0.0000 0.0000 0.0000 0.0000 0.0000 0.0000 0.0000 -1.0718 0.0000 0.0000 0.0000 0.0000 43.7500 0.0000 0.0000 7.5000 0.0000 0.0000 0.0000 0.0000 0.0000 0.0000 0.0000 0.0000 -43.7500 0.0000 0.0000 -7.5000 0.0000 0.0000 0.0000 0.0000 0.0000
0.0000 100.5548 0.0000 0.0000 0.0000 0.0000 11.4995 -5.1470 0.0000 0.0000 9.3582 0.0000 0.0000 -4.2112 0.0000 0.0000 0.0000 0.0000 -11.4995 -5.1470 0.0000 0.0000 9.3582 0.0000 0.0000 -4.2112 0.0000 0.0000 0.0000 0.0000 0.0000 1.4037 0.0000 0.0000 0.0000 0.0000 0.0000 0.0000 0.0000 0.0000 -1.8716 0.0000 0.0000 0.0000 0.0000 55.5300 0.0000 0.0000 8.2139 0.0000 0.0000 0.0000 0.0000 0.0000 0.0000 0.0000 0.0000 -55.5300 0.0000 0.0000 -8.2139 0.0000 0.0000 0.0000 0.0000 0.0000
0.0000 98.2130 0.0000 0.0000 0.0000 0.0000 12.3623 -7.8587 0.0000 0.0000 14.2885 0.0000 0.0000 -6.4298 0.0000 0.0000 0.0000 0.0000 -12.3623 -7.8587 0.0000 0.0000 14.2885 0.0000 0.0000 -6.4298 0.0000 0.0000 0.0000 0.0000 0.0000 2.1433 0.0000 0.0000 0.0000 0.0000 0.0000 0.0000 0.0000 0.0000 -2.8577 0.0000 0.0000 0.0000 0.0000 65.6987 0.0000 0.0000 8.8302 0.0000 0.0000 0.0000 0.0000 0.0000 0.0000 0.0000 0.0000 -65.6987 0.0000 0.0000 -8.8302 0.0000 0.0000 0.0000 0.0000 0.0000
0.0000 95.5000 0.0000 0.0000 0.0000 0.0000 13.0622 -11.0000 0.0000 0.0000 20.0000 0.0000 0.0000 -9.0000 0.0000 0.0000 0.0000 0.0000 -13.0622 -11.0000 0.0000 0.0000 20.0000 0.0000 0.0000 -9.0000 0.0000 0.0000 0.0000 0.0000 0.0000 3.0000 0.0000 0.0000 0.0000 0.0000 0.0000 0.0000 0.0000 0.0000 -4.0000 0.0000 0.0000 0.0000 0.0000 73.9471 0.0000 0.0000 9.3301 0.0000 0.0000 0.0000 0.0000 0.0000 0.0000 0.0000 0.0000 -73.9471 0.0000 0.0000 -9.3301 0.0000 0.0000 0.0000 0.0000 0.0000
0.0000 92.4984 0.0000 0.0000 0.0000 0.0000 13.5778 -14.4756 0.0000 0.0000 26.3192 0.0000 0.0000 -11.8436 0.0000 0.0000 0.0000 0.0000 -13.5778 -14.4756 0.0000 0.0000 26.3192 0.0000 0.0000 -11.8436 0.0000 0.0000 0.0000 0.0000 0.0000 3.9479 0.0000 0.0000 0.0000 0.0000 0.0000 0.0000 0.0000 0.0000 -5.2638 0.0000 0.0000 0.0000 0.0000 80.0246 0.0000 0.0000 9.6985 0.0000 0.0000 0.0000 0.0000 0.0000 0.0000 0.0000 0.0000 -80.0246 0.0000 0.0000 -9.6985 0.0000 0.0000 0.0000 0.0000 0.0000
0.0000 89.2993 0.0000 0.0000 0.0000 0.0000 13.8937 -18.1797 0.0000 0.0000 33.0541 0.0000 0.0000 -14.8743 0.0000 0.0000 0.0000 0.0000 -13.8937 -18.1797 0.0000 0.0000 33.0541 0.0000 0.0000 -14.8743 0.0000 0.0000 0.0000 0.0000 0.0000 4.9581 0.0000 0.0000 0.0000 0.0000 0.0000 0.0000 0.0000 0.0000 -6.6108 0.0000 0.0000 0.0000 0.0000 83.7466 0.0000 0.0000 9.9240 0.0000 0.0000 0.0000 0.0000 0.0000 0.0000 0.0000 0.0000 -83.7466 0.0000 0.0000 -9.9240 0.0000 0.0000 0.0000 0.0000 0.0000
0.0000 86.0000 0.0000 0.0000 0.0000 0.0000 14.0000 -22.0000 0.0000 0.0000 40.0000 0.0000 0.0000 -18.0000 0.0000 0.0000 0.0000 0.0000 -14.0000 -22.0000 0.0000 0.0000 40.0000 0.0000 0.0000 -18.0000 0.0000 0.0000 0.0000 0.0000 0.0000 6.0000 0.0000 0.0000 0.0000 0.0000 0.0000 0.0000 0.0000 0.0000 -8.0000 0.0000 0.0000 0.0000 0.0000 85.0000 0.0000 0.0000 10.0000 0.0000 0.0000 0.0000 0.0000 0.0000 0.0000 0.0000 0.0000 -85.0000 0.0000 0.0000 -10.0000 0.0000 0.0000 0.0000 0.0000 0.0000
0.0000 89.2993 0.0000 0.0000 0.0000 0.0000 13.8937 -18.1797 0.0000 0.0000 33.0541 0.0000 0.0000 -14.8743 0.0000 0.0000 0.0000 0.0000 -13.8937 -18.1797 0.0000 0.0000 33.0541 0.0000 0.0000 -14.8743 0.0000 0.0000 0.0000 0.0000 0.0000 4.9581 0.0000 0.0000 0.0000 0.0000 0.0000 0.0000 0.0000 0.0000 -6.6108 0.0000 0.0000 0.0000 0.0000 83.7466 0.0000 0.0000 9.9240 0.0000 0.0000 0.0000 0.0000 0.0000 0.0000 0.0000 0.0000 -83.7466 0.0000 0.0000 -9.9240 0.0000 0.0000 0.0000 0.0000 0.0000
0.0000 92.4984 0.0000 0.0000 0.0000 0.0000 13.5778 -14.4756 0.0000 0.0000 26.3192 0.0000 0.0000 -11.8436 0.0000 0.0000 0.0000 0.0000 -13.5778 -14.4756 0.0000 0.0000 26.3192 0.0000 0.0000 -11.8436 0.0000 0.0000 0.0000 0.0000 0.0000 3.9479 0.0000 0.0000 0.0000 0.0000 0.0000 0.0000 0.0000 0.0000 -5.2638 0.0000 0.0000 0.0000 0.0000 80.0246 0.0000 0.0000 9.6985 0.0000 0.0000 0.0000 0.0000 0.0000 0.0000 0.0000 0.0000 -80.0246 0.0000 0.0000 -9.6985 0.0000 0.0000 0.0000 0.0000 0.0000
0.0000 95.5000 0.0000 0.0000 0.0000 0.0000 13.0622 -11.0000 0.0000 0.0000 20.0000 0.0000 0.0000 -9.0000 0.0000 0.0000 0.0000 0.0000 -13.0622 -11.0000 0.0000 0.0000 20.0000 0.0000 0.0000 -9.0000 0.0000 0.0000 0.0000 0.0000 0.0000 3.0000 0.0000 0.0000 0.0000 0.0000 0.0000 0.0000 0.0000 0.0000 -4.0000 0.0000 0.0000 0.0000 0.0000 73.9471 0.0000 0.0000 9.3301 0.0000 0.0000 0.0000 0.0000 0.0000 0.0000 0.0000 0.0000 -73.9471 0.0000 0.0000 -9.3301 0.0000 0.0000 0.0000 0.0000 0.0000
0.0000 98.2130 0.0000 0.0000 0.0000 0.0000 12.3623 -7.8587 0.0000 0.0000 14.2885 0.0000 0.0000 -6.4298 0.0000 0.0000 0.0000 0.0000 -12.3623 -7.8587 0.0000 0.0000 14.2885 0.0000 0.0000 -6.4298 0.0000 0.0000 0.0000 0.0000 0.0000 2.1433 0.0000 0.0000 0.0000 0.0000 0.0000 0.0000 0.0000 0.0000 -2.8577 0.0000 0.0000 0.0000 0.0000 65.6987 0.0000 0.0000 8.8302 0.0000 0.0000 0.0000 0.0000 0.0000 0.0000 0.0000 0.0000 -65.6987 0.0000 0.0000 -8.8302 0.0000 0.0000 0.0000 0.0000 0.0000
0.0000 100.5548 0.0000 0.0000 0.0000 0.0000 11.4995 -5.1470 0.0000 0.0000 9.3582 0.0000 0.0000 -4.2112 0.0000 0.0000 0.0000 0.0000 -11.4995 -5.1470 0.0000 0.0000 9.3582 0.0000 0.0000 -4.2112 0.0000 0.0000 0.0000 0.0000 0.0000 1.4037 0.0000 0.0000 0.0000 0.0000 0.0000 0.0000 0.0000 0.0000 -1.8716 0.0000 0.0000 0.0000 0.0000 55.5300 0.0000 0.0000 8.2139 0.0000 0.0000 0.0000 0.0000 0.0000 0.0000 0.0000 0.0000 -55.5300 0.0000 0.0000 -8.2139 0.0000 0.0000 0.0000 0.0000 0.0000
0.0000 102.4545 0.0000 0.0000 0.0000 0.0000 10.5000 -2.9474 0.0000 0.0000 5.3590 0.0000 0.0000 -2.4115 0.0000 0.0000 0.0000 0.0000 -10.5000 -2.9474 0.0000 0.0000 5.3590 0.0000 0.0000 -2.4115 0.0000 0.0000 0.0000 0.0000 0.0000 0.8038 0.0000 0.0000 0.0000 0.0000 0.0000 0.0000 0.0000 0.0000 -1.0718 0.0000 0.0000 0.0000 0.0000 43.7500 0.0000 0.0000 7.5000 0.0000 0.0000 0.0000 0.0000 0.0000 0.0000 0.0000 0.0000 -43.7500 0.0000 0.0000 -7.5000 0.0000 0.0000 0.0000 0.0000 0.0000
0.0000 103.8542 0.0000 0.0000 0.0000 0.0000 9.3941 -1.3268 0.0000 0.0000 2.4123 0.0000 0.0000 -1.0855 0.0000 0.0000 0.0000 0.0000 -9.3941 -1.3268 0.0000 0.0000 2.4123 0.0000 0.0000 -1.0855 0.0000 0.0000 0.0000 0.0000 0.0000 0.3618 0.0000 0.0000 0.0000 0.0000 0.0000 0.0000 0.0000 0.0000 -0.4825 0.0000 0.0000 0.0000 0.0000 30.7167 0.0000 0.0000 6.7101 0.0000 0.0000 0.0000 0.0000 0.0000 0.0000 0.0000 0.0000 -30.7167 0.0000 0.0000 -6.7101 0.0000 0.0000 0.0000 0.0000 0.0000
0.0000 104.7113 0.0000 0.0000 0.0000 0.0000 8.2155 -0.3342 0.0000 0.0000 0.6077 0.0000 0.0000 -0.2735 0.0000 0.0000 0.0000 0.0000 -8.2155 -0.3342 0.0000 0.0000 0.6077 0.0000 0.0000 -0.2735 0.0000 0.0000 0.0000 0.0000 0.0000 0.0912 0.0000 0.0000 0.0000 0.0000 0.0000 0.0000 0.0000 0.0000 -0.1215 0.0000 0.0000 0.0000 0.0000 16.8260 0.0000 0.0000 5.8682 0.0000 0.0000 0.0000 0.0000 0.0000 0.0000 0.0000 0.0000 -16.8260 0.0000 0.0000 -5.8682 0.0000 0.0000 0.0000 0.0000 0.0000
0.0000 105.0000 0.0000 0.0000 0.0000 0.0000 7.0000 -0.0000 0.0000 0.0000 0.0000 0.0000 0.0000 -0.0000 0.0000 0.0000 0.0000 0.0000 -7.0000 -0.0000 0.0000 0.0000 0.0000 0.0000 0.0000 -0.0000 0.0000 0.0000 0.0000 0.0000 0.0000 0.0000 0.0000 0.0000 0.0000 0.0000 0.0000 0.0000 0.0000 0.0000 -0.0000 0.0000 0.0000 0.0000 0.0000 2.5000 0.0000 0.0000 5.0000 0.0000 0.0000 0.0000 0.0000 0.0000 0.0000 0.0000 0.0000 -2.5000 0.0000 0.0000 -5.0000 0.0000 0.0000 0.0000 0.0000 0.0000
0.0000 104.7113 0.0000 0.0000 0.0000 0.0000 5.7845 -0.3342 0.0000 0.0000 0.6077 0.0000 0.0000 -0.2735 0.0000 0.0000 0.0000 0.0000 -5.7845 -0.3342 0.0000 0.0000 0.6077 0.0000 0.0000 -0.2735 0.0000 0.0000 0.0000 0.0000 0.0000 0.0912 0.0000 0.0000 0.0000 0.0000 0.0000 0.0000 0.0000 0.0000 -0.1215 0.0000 0.0000 0.0000 0.0000 -11.8260 0.0000 0.0000 4.1318 0.0000 0.0000 0.0000 0.0000 0.0000 0.0000 0.0000 0.0000 11.8260 0.0000 0.0000 -4.1318 0.0000 0.0000 0.0000 0.0000 0.0000
0.0000 103.8542 0.0000 0.0000 0.0000 0.0000 4.6059 -1.3268 0.0000 0.0000 2.4123 0.0000 0.0000 -1.0855 0.0000 0.0000 0.0000 0.0000 -4.6059 -1.3268 0.0000 0.0000 2.4123 0.0000 0.0000 -1.0855 0.0000 0.0000 0.0000 0.0000 0.0000 0.3618 0.0000 0.0000 0.0000 0.0000 0.0000 0.0000 0.0000 0.0000 -0.4825 0.0000 0.0000 0.0000 0.0000 -25.7167 0.0000 0.0000 3.2899 0.0000 0.0000 0.0000 0.0000 0.0000 0.0000 0.0000 0.0000 25.7167 0.0000 0.0000 -3.2899 0.0000 0.0000 0.0000 0.0000 0.0000
0.0000 102.4545 0.0000 0.0000 0.0000 0.0000 3.5000 -2.9474 0.0000 0.0000 5.3590 0.0000 0.0000 -2.4115 0.0000 0.0000 0.0000 0.0000 -3.5000 -2.9474 0.0000 0.0000 5.3590 0.0000 0.0000 -2.4115 0.0000 0.0000 0.0000 0.0000 0.0000 0.8038 0.0000 0.0000 0.0000 0.0000 0.0000 0.0000 0.0000 0.0000 -1.0718 0.0000 0.0000 0.0000 0.0000 -38.7500 0.0000 0.0000 2.5000 0.0000 0.0000 0.0000 0.0000 0.0000 0.0000 0.0000 0.0000 38.7500 0.0000 0.0000 -2.5000 0.0000 0.0000 0.0000 0.0000 0.0000
0.0000 100.5548 0.0000 0.0000 0.0000 0.0000 2.5005 -5.1470 0.0000 0.0000 9.3582 0.0000 0.0000 -4.2112 0.0000 0.0000 0.0000 0.0000 -2.5005 -5.1470 0.0000 0.0000 9.3582 0.0000 0.0000 -4.2112 0.0000 0.0000 0.0000 0.0000 0.0000 1.4037 0.0000 0.0000 0.0000 0.0000 0.0000 0.0000 0.0000 0.0000 -1.8716 0.0000 0.0000 0.0000 0.0000 -50.5300 0.0000 0.0000 1.7861 0.0000 0.0000 0.0000 0.0000 0.0000 0.0000 0.0000 0.0000 50.5300 0.0000 0.0000 -1.7861 0.0000 0.0000 0.0000 0.0000 0.0000
0.0000 98.2130 0.0000 0.0000 0.0000 0.0000 1.6377 -7.8587 0.0000 0.0000 14.2885 0.0000 0.0000 -6.4298 0.0000 0.0000 0.0000 0.0000 -1.6377 -7.8587 0.0000 0.0000 14.2885 0.0000 0.0000 -6.4298 0.0000 0.0000 0.0000 0.0000 0.0000 2.1433 0.0000 0.0000 0.0000 0.0000 0.0000 0.0000 0.0000 0.0000 -2.8577 0.0000 0.0000 0.0000 0.0000 -60.6987 0.0000 0.0000 1.1698 0.0000 0.0000 0.0000 0.0000 0.0000 0.0000 0.0000 0.0000 60.6987 0.0000 0.0000 -1.1698 0.0000 0.0000 0.0000 0.0000 0.0000
0.0000 95.5000 0.0000 0.0000 0.0000 0.0000 0.9378 -11.0000 0.0000 0.0000 20.0000 0.0000 0.0000 -9.0000 0.0000 0.0000 0.0000 0.0000 -0.9378 -11.0000 0.0000 0.0000 20.0000 0.0000 0.0000 -9.0000 0.0000 0.0000 0.0000 0.0000 0.0000 3.0000 0.0000 0.0000 0.0000 0.0000 0.0000 0.0000 0.0000 0.0000 -4.0000 0.0000 0.0000 0.0000 0.0000 -68.9471 0.0000 0.0000 0.6699 0.0000 0.0000 0.0000 0.0000 0.0000 0.0000 0.0000 0.0000 68.9471 0.0000 0.0000 -0.6699 0.0000 0.0000 0.0000 0.0000 0.0000
0.0000 92.4984 0.0000 0.0000 0.0000 0.0000 0.4222 -14.4756 0.0000 0.0000 26.3192 0.0000 0.0000 -11.8436 0.0000 0.0000 0.0000 0.0000 -0.4222 -14.4756 0.0000 0.0000 26.3192 0.0000 0.0000 -11.8436 0.0000 0.0000 0.0000 0.0000 0.0000 3.9479 0.0000 0.0000 0.0000 0.0000 0.0000 0.0000 0.0000 0.0000 -5.2638 0.0000 0.0000 0.0000 0.0000 -75.0246 0.0000 0.0000 0.3015 0.0000 0.0000 0.0000 0.0000 0.0000 0.0000 0.0000 0.0000 75.0246 0.0000 0.0000 -0.3015 0.0000 0.0000 0.0000 0.0000 0.0000
0.0000 89.2993 0.0000 0.0000 0.0000 0.0000 0.1063 -18.1797 0.0000 0.0000 33.0541 0.0000 0.0000 -14.8743 0.0000 0.0000 0.0000 0.0000 -0.1063 -18.1797 0.0000 0.0000 33.0541 0.0000 0.0000 -14.8743 0.0000 0.0000 0.0000 0.0000 0.0000 4.9581 0.0000 0.0000 0.0000 0.0000 0.0000 0.0000 0.0000 0.0000 -6.6108 0.0000 0.0000 0.0000 0.0000 -78.7466 0.0000 0.0000 0.0760 0.0000 0.0000 0.0000 0.0000 0.0000 0.0000 0.0000 0.0000 78.7466 0.0000 0.0000 -0.0760 0.0000 0.0000 0.0000 0.0000 0.0000
